OBJECT_NAME,OBJECT_ID,EPOCH,MEAN_MOTION,ECCENTRICITY,INCLINATION,RA_OF_ASC_NODE,ARG_OF_PERICENTER,MEAN_ANOMALY,EPHEMERIS_TYPE,CLASSIFICATION_TYPE,NORAD_CAT_ID,ELEMENT_SET_NO,REV_AT_EPOCH,BSTAR,MEAN_MOTION_DOT,MEAN_MOTION_DDOT
BRITE-CA1 (TORONTO),2014-033L,2025-08-18T03:02:40.495776,14.71752777,0.0080275,97.9343,0.574,166.1745,194.1687,0,U,40020,999,59773,0.00020047,1.263e-05,0.0
DUCHIFAT-1,2014-033M,2025-08-17T19:02:47.849568,15.31210059,0.001015,98.0947,250.2751,84.4886,275.751,0,U,40021,999,60890,0.00067685,0.00020382,0.0
NANOSATC-BR1,2014-033Q,2025-08-17T13:45:29.004768,15.19819141,0.0006151,98.0935,232.3718,141.6172,218.5499,0,U,40024,999,60820,0.00047719,0.00010158,0.0
QB50P1,2014-033R,2025-08-17T22:42:54.874944,15.1142395,0.0010661,98.088,216.4596,168.8065,191.3402,0,U,40025,999,60711,0.00036381,6.084e-05,0.0
DTUSAT-2,2014-033W,2025-08-17T20:48:34.543008,15.09067087,0.0009217,98.0613,205.0965,173.5541,186.5806,0,U,40030,999,60684,0.00037346,5.851e-05,0.0
QB50P2,2014-033Y,2025-08-17T21:12:42.148224,15.09139446,0.0010105,98.0487,204.6721,121.2716,238.9503,0,U,40032,999,60682,0.00042423,6.672e-05,0.0
PERSEUS-M2,2014-033AD,2025-08-18T02:21:36.709920,14.93953316,0.0011188,97.9572,170.526,218.5426,141.4995,0,U,40037,999,60600,0.00014035,1.436e-05,0.0
PERSEUS-M1,2014-033AF,2025-08-18T02:02:18.733056,14.93954119,0.0010966,97.9297,165.2313,216.9234,143.1231,0,U,40039,999,60586,0.00015458,1.588e-05,0.0
POLYITAN-1,2014-033AJ,2025-08-17T23:30:13.367232,15.20231261,0.0011825,98.1071,225.3445,118.2115,242.0314,0,U,40042,999,60783,0.00053834,0.00011626,0.0
TIGRISAT,2014-033AK,2025-08-17T21:23:49.647840,14.83227882,0.0050868,97.7438,22.9846,350.6315,9.3945,0,U,40043,999,60063,0.00019858,1.605e-05,0.0
LEMUR-1,2014-033AL,2025-08-17T21:06:56.492928,14.83259522,0.0050041,97.7483,22.5717,354.2184,5.8446,0,U,40044,999,60047,0.00021017,1.702e-05,0.0
AEROCUBE 6A,2014-033AM,2025-08-17T21:56:48.082560,14.92966715,0.0041546,97.699,36.6335,310.1639,49.5945,0,U,40045,999,60128,0.00037568,3.909e-05,0.0
AEROCUBE 6B,2014-033AN,2025-08-17T22:05:50.385984,14.94170184,0.0040129,97.6964,35.8756,302.7997,56.936,0,U,40046,999,60138,0.00041073,4.409e-05,0.0
SPOT 7,2014-034A,2025-08-18T03:31:27.771744,14.60524464,0.0001597,98.1071,294.8168,94.4893,265.649,0,U,40053,999,59291,9.1129e-05,3.97e-06,0.0
CANX-4,2014-034C,2025-08-18T04:09:01.911456,14.80352994,0.0011676,98.3547,88.7456,264.1177,95.8703,0,U,40055,999,59971,0.00011995,8.58e-06,0.0
CANX-5,2014-034D,2025-08-17T13:35:34.018944,14.80366017,0.0011659,98.355,88.1403,266.5095,93.4783,0,U,40056,999,59040,0.00012233,8.77e-06,0.0
OCO 2,2014-035A,2025-08-17T21:50:41.781120,14.57129257,0.000133,98.2031,170.5073,82.8521,277.2828,0,U,40059,999,59188,0.00010415,4.24e-06,0.0
GONETS-M 8,2014-036A,2025-08-17T22:01:14.825280,12.42972132,0.0030839,82.5123,135.9836,89.4216,271.0397,0,U,40061,999,50477,4.9827e-05,1.7e-07,0.0
GONETS-M 9,2014-036B,2025-08-17T20:52:39.090432,12.42938636,0.0024009,82.5121,136.0817,95.3818,265.0001,0,U,40062,999,50477,-1.6414e-05,8e-08,0.0
GONETS-M 10,2014-036C,2025-08-17T20:25:26.969376,12.42935115,0.0022881,82.5126,136.095,82.6582,277.7097,0,U,40063,999,50456,8.874e-05,2.2e-07,0.0
METEOR-M 2,2014-037A,2025-08-18T05:50:55.457088,14.2131976,0.0005451,98.474,212.3768,185.0119,175.1005,0,U,40069,999,57628,8.0112e-05,1.33e-06,0.0
DX1,2014-037C,2025-08-18T03:29:16.556928,14.88381698,0.0007594,98.3455,169.5913,166.986,193.1552,0,U,40071,999,60108,0.00017036,1.518e-05,0.0
SKYSAT-B,2014-037D,2025-08-17T19:15:43.513344,14.86688252,0.0005905,98.343,167.5318,168.0666,192.0689,0,U,40072,999,60086,0.00013547,1.144e-05,0.0
UKUBE-1,2014-037F,2025-08-17T20:51:44.016480,15.06422955,0.0003406,98.398,198.2981,101.1214,259.0394,0,U,40074,999,60277,0.00053459,7.813e-05,0.0
TECHDEMOSAT-1 (TDS-1),2014-037H,2025-08-17T21:19:05.555136,15.06516134,0.0006834,98.3484,189.2049,192.0721,168.0342,0,U,40076,999,60245,0.00044553,6.518e-05,0.0
O3B FM3,2014-038A,2025-08-17T20:55:27.653376,5.0011547,0.0003103,0.0536,359.1236,96.0973,264.8126,0,U,40079,999,19786,0.0,-2.3e-07,0.0
O3B FM7,2014-038B,2025-08-17T19:37:49.758528,5.00115483,0.0003833,0.0569,6.2078,164.27,189.5276,0,U,40080,999,20269,0.0,-2.3e-07,0.0
O3B FM6,2014-038C,2025-08-17T15:28:56.963136,5.00115614,0.0002742,0.0552,1.8933,142.7326,215.3906,0,U,40081,999,20264,0.0,-2.3e-07,0.0
O3B FM8,2014-038D,2025-08-17T21:33:42.014016,5.00115792,0.0002536,0.0557,2.7747,142.6994,214.5404,0,U,40082,999,20276,0.0,-2.3e-07,0.0
ORBCOMM FM109,2014-040A,2025-08-17T17:07:47.866944,14.58250041,0.0002053,47.003,85.6975,267.8716,92.1934,0,U,40086,999,59004,0.00012872,4.3e-06,0.0
ORBCOMM FM107,2014-040B,2025-08-18T00:19:13.470240,14.58324241,0.0001303,47.0049,85.223,219.9707,140.1083,0,U,40087,999,59020,0.00013062,4.4e-06,0.0
NAVSTAR 71 (USA 256),2014-045A,2025-08-14T22:12:56.029536,2.00565026,0.0031742,55.1503,100.6797,116.2177,244.1842,0,U,40105,999,7993,0.0,-1.6e-07,0.0
ASIASAT 8 (AMOS-7),2014-046A,2025-08-18T01:21:23.590656,1.00264051,0.0001224,0.0157,123.2809,33.3718,295.6357,0,U,40107,999,4046,0.0,-3.42e-06,0.0
YAOGAN-20 01A,2014-047A,2025-08-17T21:17:58.873344,13.45397433,0.0363583,63.3808,80.9332,13.1132,347.9043,0,U,40109,999,54163,1.883e-05,-7.4e-07,0.0
YAOGAN-20 01B,2014-047B,2025-08-17T21:19:56.121600,13.45396554,0.0363423,63.3808,81.8037,13.1405,347.8785,0,U,40110,999,54147,3.4152e-07,-9e-07,0.0
YAOGAN-20 01C,2014-047C,2025-08-17T21:09:41.076288,13.45407321,0.0363525,63.3799,81.5397,13.5058,347.5387,0,U,40111,999,54148,2.2107e-05,-7.1e-07,0.0
WORLDVIEW-3 (WV-3),2014-048A,2025-08-17T21:22:40.807776,14.85093415,0.0004312,97.8741,303.596,208.3843,151.7138,0,U,40115,999,59689,0.00010063,8.06e-06,0.0
GAOFEN-2,2014-049A,2025-08-18T03:34:25.747104,14.80200061,0.0008855,98.0561,289.0268,136.2983,223.8931,0,U,40118,999,59440,0.00013913,1.004e-05,0.0
BRITE-PL2 (HEWELIUSZ),2014-049B,2025-08-17T20:48:40.187520,14.92824881,0.0015297,97.8936,335.2749,39.6313,320.6021,0,U,40119,999,59616,0.00016275,1.629e-05,0.0
GSAT0201 (GALILEO 5),2014-050A,2025-08-16T21:20:43.223424,1.85519542,0.1637672,49.2061,285.86,167.7567,196.8039,0,U,40128,999,7267,0.0,-2.5e-07,0.0
GSAT0202 (GALILEO 6),2014-050B,2025-08-17T16:26:30.389280,1.85520213,0.1638102,49.2211,284.9099,168.5456,195.732,0,U,40129,999,7485,0.0,-2e-07,0.0
LING QIAO,2014-051A,2025-08-18T03:18:39.440736,14.30191731,0.0020532,98.6955,226.8913,344.3862,15.6684,0,U,40136,999,57172,3.5575e-05,4.8e-07,0.0
CHUANGXIN 1-04 (CX-1-04),2014-051B,2025-08-18T03:03:52.460064,14.30304292,0.002208,98.6955,226.8636,345.6474,14.4079,0,U,40137,999,57170,4.7535e-05,7.9e-07,0.0
ASIASAT 6,2014-052A,2025-08-17T21:59:55.808160,1.00272093,7.08e-05,0.0484,276.9329,235.158,264.3272,0,U,40141,999,4002,0.0,-3.72e-06,0.0
YAOGAN-21,2014-053A,2025-08-18T04:23:29.694912,15.23710652,0.0012633,97.1948,278.4026,124.111,236.1329,0,U,40143,999,60883,0.00023688,5.633e-05,0.0
OPTUS 10,2014-054A,2025-08-18T04:03:38.614752,1.00271073,0.0003015,0.1172,2.1255,155.201,26.3762,0,U,40146,999,4008,0.0,-1.58e-06,0.0
MEASAT-3B,2014-054B,2025-08-17T21:51:49.084992,1.00272828,0.0001834,0.0314,10.0225,96.9723,278.9787,0,U,40147,999,3986,0.0,-2.52e-06,0.0
LUCH (OLYMP-K 1),2014-058A,2025-08-17T17:08:42.013824,1.00414378,0.0001474,1.1055,86.7095,100.0943,100.6335,0,U,40258,999,3989,0.0,-2.3e-07,0.0
SJ-11-07,2014-059A,2025-08-18T03:42:44.465184,14.63234166,0.0011301,98.0316,302.9582,32.0663,328.1225,0,U,40261,999,58060,9.787e-05,4.58e-06,0.0
HIMAWARI-8,2014-060A,2025-08-17T22:05:55.233024,1.00269988,7.83e-05,0.0153,162.7554,11.1663,264.7406,0,U,40267,999,3970,0.0,-2.86e-06,0.0
IRNSS-1C,2014-061A,2025-08-17T16:40:59.841120,1.00276492,0.0021124,5.7389,95.0683,2.4403,202.1332,0,U,40269,999,3964,0.0,-1.77e-06,0.0
INTELSAT 30 (IS-30),2014-062A,2025-08-18T03:49:44.262912,1.00270004,0.0001402,0.0138,70.0389,331.405,247.6954,0,U,40271,999,3972,0.0,-1.61e-06,0.0
ARSAT 1,2014-062B,2025-08-17T21:05:16.050336,1.00271238,0.0001769,0.0296,316.4878,186.5906,67.9234,0,U,40272,999,3957,0.0,-2.69e-06,0.0
YAOGAN-22,2014-063A,2025-08-17T21:25:10.826688,13.15514596,0.0006669,100.7269,11.7475,149.1784,210.972,0,U,40275,999,51993,0.00015109,1e-07,0.0
EXPRESS-AM6,2014-064A,2025-08-17T22:12:38.837664,1.00272552,0.0001671,0.0117,113.1384,80.8332,158.7111,0,U,40277,999,3852,0.0,8.8e-07,0.0
SJ-11-08,2014-066A,2025-08-18T04:30:10.280736,14.65525698,0.0013454,98.3094,5.7704,101.6723,258.599,0,U,40286,999,57683,0.00013259,6.7e-06,0.0
NAVSTAR 72 (USA 258),2014-068A,2025-08-17T06:58:31.666656,2.00557572,0.0062047,56.7722,42.685,69.0247,291.6735,0,U,40294,999,7911,0.0,-4.2e-07,0.0
MERIDIAN 7,2014-069A,2025-08-17T02:20:25.816128,2.00624401,0.6793502,63.4812,246.3866,272.2331,17.8148,0,U,40296,999,7913,0.0,1.71e-06,0.0
ASNARO,2014-070A,2025-08-18T04:23:56.291424,15.19804662,0.0006338,97.3759,308.9009,136.0412,224.1328,0,U,40298,999,59801,0.00033427,7.097e-05,0.0
YAOGAN-24,2014-072A,2025-08-18T03:46:16.093344,14.7616966,0.001493,98.1076,0.7309,152.7155,207.4841,0,U,40310,999,57903,0.00011528,7.45e-06,0.0
COSMOS 2501 [GLONASS-K],2014-075A,2025-08-16T18:01:51.475872,2.13101297,0.0021692,63.6181,200.9091,211.4664,148.3962,0,U,40315,999,8336,0.0,7.8e-07,0.0
GSAT-16,2014-078A,2025-08-17T22:12:38.837664,1.00272365,0.0005858,0.0679,268.2331,192.1669,254.3582,0,U,40332,999,3906,0.0,7.5e-07,0.0
DIRECTV 14,2014-078B,2025-08-17T20:57:24.303744,1.00270499,7.41e-05,0.017,102.5015,120.2874,318.8121,0,U,40333,999,3900,0.0,-1.35e-06,0.0
CBERS 4,2014-079A,2025-08-18T04:25:16.545792,14.35529191,0.0001859,98.3485,292.0714,113.2149,246.9233,0,U,40336,999,56050,5.0222e-05,1.02e-06,0.0
YAOGAN-25 01A,2014-080A,2025-08-17T21:01:44.559552,13.45371256,0.0339516,63.3904,12.0642,7.7325,352.8751,0,U,40338,999,52485,-3.2466e-05,-1.18e-06,0.0
YAOGAN-25 01B,2014-080B,2025-08-17T20:51:01.048032,13.45389912,0.0339785,63.3926,12.216,7.5603,353.0364,0,U,40339,999,52482,-4.8909e-06,-9.5e-07,0.0
YAOGAN-25 01C,2014-080C,2025-08-17T20:49:46.356096,13.45386022,0.0339412,63.3908,12.5445,8.2256,352.4143,0,U,40340,999,52494,-1.0771e-06,-9.1e-07,0.0
